CCSDS_OMM_VERS = 2.0
CREATION_DATE  = 
ORIGINATOR     = 

OBJECT_NAME    = STARLINK-35376
OBJECT_ID      = 2025-232P
CENTER_NAME    = EARTH
REF_FRAME      = TEME
TIME_SYSTEM    = UTC
MEAN_ELEMENT_THEORY = SGP/SGP4

EPOCH          = 2025-11-07T08:00:01.999872
MEAN_MOTION    = 15.49295938
ECCENTRICITY   = .00017049
INCLINATION    = 53.1593
RA_OF_ASC_NODE = 314.4000
ARG_OF_PERICENTER = 83.5825
MEAN_ANOMALY   = 213.0473

EPHEMERIS_TYPE = 0
CLASSIFICATION_TYPE = U
NORAD_CAT_ID   = 66018
ELEMENT_SET_NO = 999
REV_AT_EPOCH   = 386
BSTAR          = .21065528E-3
MEAN_MOTION_DOT = .11279E-3
MEAN_MOTION_DDOT = 0

CCSDS_OMM_VERS = 2.0
CREATION_DATE  = 
ORIGINATOR     = 

OBJECT_NAME    = STARLINK-35382
OBJECT_ID      = 2025-232Q
CENTER_NAME    = EARTH
REF_FRAME      = TEME
TIME_SYSTEM    = UTC
MEAN_ELEMENT_THEORY = SGP/SGP4

EPOCH          = 2025-11-07T08:00:01.999872
MEAN_MOTION    = 15.49305477
ECCENTRICITY   = .0001704
INCLINATION    = 53.1593
RA_OF_ASC_NODE = 314.4113
ARG_OF_PERICENTER = 85.9666
MEAN_ANOMALY   = 204.9113

EPHEMERIS_TYPE = 0
CLASSIFICATION_TYPE = U
NORAD_CAT_ID   = 66019
ELEMENT_SET_NO = 999
REV_AT_EPOCH   = 385
BSTAR          = -.15281322E-3
MEAN_MOTION_DOT = -.8937E-4
MEAN_MOTION_DDOT = 0

CCSDS_OMM_VERS = 2.0
CREATION_DATE  = 
ORIGINATOR     = 

OBJECT_NAME    = STARLINK-35430
OBJECT_ID      = 2025-232R
CENTER_NAME    = EARTH
REF_FRAME      = TEME
TIME_SYSTEM    = UTC
MEAN_ELEMENT_THEORY = SGP/SGP4

EPOCH          = 2025-11-07T08:00:01.999872
MEAN_MOTION    = 15.46740567
ECCENTRICITY   = .00012985
INCLINATION    = 53.1593
RA_OF_ASC_NODE = 314.3933
ARG_OF_PERICENTER = 88.7950
MEAN_ANOMALY   = 210.9927

EPHEMERIS_TYPE = 0
CLASSIFICATION_TYPE = U
NORAD_CAT_ID   = 66020
ELEMENT_SET_NO = 999
REV_AT_EPOCH   = 385
BSTAR          = -.45618302E-1
MEAN_MOTION_DOT = -.206272E-1
MEAN_MOTION_DDOT = 0

CCSDS_OMM_VERS = 2.0
CREATION_DATE  = 
ORIGINATOR     = 

OBJECT_NAME    = STARLINK-35432
OBJECT_ID      = 2025-232S
CENTER_NAME    = EARTH
REF_FRAME      = TEME
TIME_SYSTEM    = UTC
MEAN_ELEMENT_THEORY = SGP/SGP4

EPOCH          = 2025-11-07T08:00:01.999872
MEAN_MOTION    = 15.43645362
ECCENTRICITY   = .00015305
INCLINATION    = 53.1593
RA_OF_ASC_NODE = 314.4177
ARG_OF_PERICENTER = 84.5245
MEAN_ANOMALY   = 203.2379

EPHEMERIS_TYPE = 0
CLASSIFICATION_TYPE = U
NORAD_CAT_ID   = 66021
ELEMENT_SET_NO = 999
REV_AT_EPOCH   = 377
BSTAR          = -.50018836E-1
MEAN_MOTION_DOT = -.203602E-1
MEAN_MOTION_DDOT = 0

CCSDS_OMM_VERS = 2.0
CREATION_DATE  = 
ORIGINATOR     = 

OBJECT_NAME    = STARLINK-35340
OBJECT_ID      = 2025-232T
CENTER_NAME    = EARTH
REF_FRAME      = TEME
TIME_SYSTEM    = UTC
MEAN_ELEMENT_THEORY = SGP/SGP4

EPOCH          = 2025-11-07T08:00:01.999872
MEAN_MOTION    = 15.49748577
ECCENTRICITY   = .00008368
INCLINATION    = 53.1595
RA_OF_ASC_NODE = 314.3839
ARG_OF_PERICENTER = 84.2886
MEAN_ANOMALY   = 219.8851

EPHEMERIS_TYPE = 0
CLASSIFICATION_TYPE = U
NORAD_CAT_ID   = 66022
ELEMENT_SET_NO = 999
REV_AT_EPOCH   = 385
BSTAR          = -.36737792E-1
MEAN_MOTION_DOT = -.1836015E-1
MEAN_MOTION_DDOT = 0

CCSDS_OMM_VERS = 2.0
CREATION_DATE  = 
ORIGINATOR     = 

OBJECT_NAME    = STARLINK-35394
OBJECT_ID      = 2025-232U
CENTER_NAME    = EARTH
REF_FRAME      = TEME
TIME_SYSTEM    = UTC
MEAN_ELEMENT_THEORY = SGP/SGP4

EPOCH          = 2025-11-07T08:00:01.999872
MEAN_MOTION    = 15.49281007
ECCENTRICITY   = .00013057
INCLINATION    = 53.1593
RA_OF_ASC_NODE = 314.3792
ARG_OF_PERICENTER = 94.2210
MEAN_ANOMALY   = 212.0025

EPHEMERIS_TYPE = 0
CLASSIFICATION_TYPE = U
NORAD_CAT_ID   = 66023
ELEMENT_SET_NO = 999
REV_AT_EPOCH   = 385
BSTAR          = .50009035E-3
MEAN_MOTION_DOT = .27435E-3
MEAN_MOTION_DDOT = 0

CCSDS_OMM_VERS = 2.0
CREATION_DATE  = 
ORIGINATOR     = 

OBJECT_NAME    = STARLINK-35410
OBJECT_ID      = 2025-232V
CENTER_NAME    = EARTH
REF_FRAME      = TEME
TIME_SYSTEM    = UTC
MEAN_ELEMENT_THEORY = SGP/SGP4

EPOCH          = 2025-11-07T08:00:01.999872
MEAN_MOTION    = 15.49247843
ECCENTRICITY   = .00014639
INCLINATION    = 53.1594
RA_OF_ASC_NODE = 314.3714
ARG_OF_PERICENTER = 88.9439
MEAN_ANOMALY   = 221.0993

EPHEMERIS_TYPE = 0
CLASSIFICATION_TYPE = U
NORAD_CAT_ID   = 66024
ELEMENT_SET_NO = 999
REV_AT_EPOCH   = 385
BSTAR          = .17758496E-2
MEAN_MOTION_DOT = .99368E-3
MEAN_MOTION_DDOT = 0

CCSDS_OMM_VERS = 2.0
CREATION_DATE  = 
ORIGINATOR     = 

OBJECT_NAME    = STARLINK-35280
OBJECT_ID      = 2025-232W
CENTER_NAME    = EARTH
REF_FRAME      = TEME
TIME_SYSTEM    = UTC
MEAN_ELEMENT_THEORY = SGP/SGP4

EPOCH          = 2025-11-07T08:00:01.999872
MEAN_MOTION    = 15.49237616
ECCENTRICITY   = .00013188
INCLINATION    = 53.1593
RA_OF_ASC_NODE = 314.3751
ARG_OF_PERICENTER = 76.6979
MEAN_ANOMALY   = 231.4560

EPHEMERIS_TYPE = 0
CLASSIFICATION_TYPE = U
NORAD_CAT_ID   = 66025
ELEMENT_SET_NO = 999
REV_AT_EPOCH   = 378
BSTAR          = .1222771E-2
MEAN_MOTION_DOT = .6798E-3
MEAN_MOTION_DDOT = 0

CCSDS_OMM_VERS = 2.0
CREATION_DATE  = 
ORIGINATOR     = 

OBJECT_NAME    = STARLINK-34812
OBJECT_ID      = 2025-232X
CENTER_NAME    = EARTH
REF_FRAME      = TEME
TIME_SYSTEM    = UTC
MEAN_ELEMENT_THEORY = SGP/SGP4

EPOCH          = 2025-11-07T08:00:01.999872
MEAN_MOTION    = 15.49291641
ECCENTRICITY   = .00017113
INCLINATION    = 53.1596
RA_OF_ASC_NODE = 314.3681
ARG_OF_PERICENTER = 82.0093
MEAN_ANOMALY   = 229.9509

EPHEMERIS_TYPE = 0
CLASSIFICATION_TYPE = U
NORAD_CAT_ID   = 66026
ELEMENT_SET_NO = 999
REV_AT_EPOCH   = 380
BSTAR          = .43315942E-3
MEAN_MOTION_DOT = .23701E-3
MEAN_MOTION_DDOT = 0

CCSDS_OMM_VERS = 2.0
CREATION_DATE  = 
ORIGINATOR     = 

OBJECT_NAME    = STARLINK-35341
OBJECT_ID      = 2025-232Y
CENTER_NAME    = EARTH
REF_FRAME      = TEME
TIME_SYSTEM    = UTC
MEAN_ELEMENT_THEORY = SGP/SGP4

EPOCH          = 2025-11-07T08:00:01.999872
MEAN_MOTION    = 15.49363192
ECCENTRICITY   = .00014108
INCLINATION    = 53.1816
RA_OF_ASC_NODE = 314.0395
ARG_OF_PERICENTER = 80.0590
MEAN_ANOMALY   = 34.5524

EPHEMERIS_TYPE = 0
CLASSIFICATION_TYPE = U
NORAD_CAT_ID   = 66027
ELEMENT_SET_NO = 999
REV_AT_EPOCH   = 385
BSTAR          = -.28478122E-2
MEAN_MOTION_DOT = -.156011E-2
MEAN_MOTION_DDOT = 0

CCSDS_OMM_VERS = 2.0
CREATION_DATE  = 
ORIGINATOR     = 

OBJECT_NAME    = STARLINK-35339
OBJECT_ID      = 2025-232Z
CENTER_NAME    = EARTH
REF_FRAME      = TEME
TIME_SYSTEM    = UTC
MEAN_ELEMENT_THEORY = SGP/SGP4

EPOCH          = 2025-11-07T08:00:01.999872
MEAN_MOTION    = 15.49311487
ECCENTRICITY   = .00012666
INCLINATION    = 53.1591
RA_OF_ASC_NODE = 314.0363
ARG_OF_PERICENTER = 83.6193
MEAN_ANOMALY   = 32.9324

EPHEMERIS_TYPE = 0
CLASSIFICATION_TYPE = U
NORAD_CAT_ID   = 66028
ELEMENT_SET_NO = 999
REV_AT_EPOCH   = 378
BSTAR          = -.87581162E-3
MEAN_MOTION_DOT = -.48858E-3
MEAN_MOTION_DDOT = 0

CCSDS_OMM_VERS = 2.0
CREATION_DATE  = 
ORIGINATOR     = 

OBJECT_NAME    = STARLINK-35399
OBJECT_ID      = 2025-232AA
CENTER_NAME    = EARTH
REF_FRAME      = TEME
TIME_SYSTEM    = UTC
MEAN_ELEMENT_THEORY = SGP/SGP4

EPOCH          = 2025-11-07T08:00:01.999872
MEAN_MOTION    = 15.49307609
ECCENTRICITY   = .0001289
INCLINATION    = 53.1592
RA_OF_ASC_NODE = 314.0325
ARG_OF_PERICENTER = 78.5917
MEAN_ANOMALY   = 39.8806

EPHEMERIS_TYPE = 0
CLASSIFICATION_TYPE = U
NORAD_CAT_ID   = 66029
ELEMENT_SET_NO = 999
REV_AT_EPOCH   = 379
BSTAR          = -.78402745E-3
MEAN_MOTION_DOT = -.43807E-3
MEAN_MOTION_DDOT = 0

