STARLINK-35376          
1 66018U 25232P   25311.33335648  .00011279  00000+0  21066-3 0  9999
2 66018  53.1593 314.4000 0001704  83.5825 213.0473 15.49295938  3866
STARLINK-35382          
1 66019U 25232Q   25311.33335648 -.00008937  00000+0 -15281-3 0  9991
2 66019  53.1593 314.4113 0001704  85.9666 204.9113 15.49305477  3850
STARLINK-35430          
1 66020U 25232R   25311.33335648 -.02062720  00000+0 -45618-1 0  9990
2 66020  53.1593 314.3933 0001298  88.7950 210.9927 15.46740567  3856
STARLINK-35432          
1 66021U 25232S   25311.33335648 -.02036020  00000+0 -50019-1 0  9996
2 66021  53.1593 314.4177 0001530  84.5245 203.2379 15.43645362  3779
STARLINK-35340          
1 66022U 25232T   25311.33335648 -.01836015  00000+0 -36738-1 0  9990
2 66022  53.1595 314.3839 0000836  84.2886 219.8851 15.49748577  3857
STARLINK-35394          
1 66023U 25232U   25311.33335648  .00027435  00000+0  50009-3 0  9995
2 66023  53.1593 314.3792 0001305  94.2210 212.0025 15.49281007  3856
STARLINK-35410          
1 66024U 25232V   25311.33335648  .00099368  00000+0  17758-2 0  9993
2 66024  53.1594 314.3714 0001463  88.9439 221.0993 15.49247843  3854
STARLINK-35280          
1 66025U 25232W   25311.33335648  .00067980  00000+0  12228-2 0  9996
2 66025  53.1593 314.3751 0001318  76.6979 231.4560 15.49237616  3781
STARLINK-34812          
1 66026U 25232X   25311.33335648  .00023701  00000+0  43316-3 0  9993
2 66026  53.1596 314.3681 0001711  82.0093 229.9509 15.49291641  3808
STARLINK-35341          
1 66027U 25232Y   25311.33335648 -.00156011  00000+0 -28478-2 0  9998
2 66027  53.1816 314.0395 0001410  80.0590  34.5524 15.49363192  3852
STARLINK-35339          
1 66028U 25232Z   25311.33335648 -.00048858  00000+0 -87581-3 0  9999
2 66028  53.1591 314.0363 0001266  83.6193  32.9324 15.49311487  3787
STARLINK-35399          
1 66029U 25232AA  25311.33335648 -.00043807  00000+0 -78403-3 0  9992
2 66029  53.1592 314.0325 0001289  78.5917  39.8806 15.49307609  3792
